K17V13W 20.7   0.15 K1794 346.00785  337.16915   45.72999   11.47792  0.5572852  0.30805781   2.1712737  7 E2017-WA7   109   1    8 days 0.32 M-v 3Eh MPCLINUX   8803          2017 VW13          20171121
K17V15O 19.5   0.15 K1794 320.47871   19.03291   80.36084   25.98995  0.4760597  0.38348361   1.8763111  6 E2017-W77    51   1    5 days 0.35 M-v 3Eh MPCLINUX   8803          2017 VO15          20171120
K17W02G 20.0   0.15 K1794 213.34579  103.04431  101.51647   14.49722  0.5773186  0.82830088   1.1229075  8 E2017-WA7    22   1    4 days 0.19 M-v 3Eh MPCLINUX   8803          2017 WG2           20171122
K17W02J 21.8   0.15 K1794  65.79648  223.48170   44.45000   22.38706  0.1621006  1.08892058   0.9357042  7 E2017-WA7    18   1    3 days 0.24 M-v 3Eh MPCW       8802          2017 WJ2           20171121
K2683   19.8   0.15 K1794 256.89610   56.33724  193.31169    3.43166  0.5624435  1.93874324   0.6369752  3 MPO396546    86   7 2005-2017 0.46 M-h 3Eh MPCLINUX   C805 (202683) 2006 US216         20170107
K5744   18.2   0.15 K1794 148.06558  103.85116  156.20292   11.93131  0.7476808  0.28281199   2.2986393  0 MPO391064   369   6 1995-2016 0.47 M-h 3Eh MPCLINUX   9803 (205744) 2002 BK25          20161109
K6378   18.7   0.15 K1794 295.23670   44.03419  317.16976    6.72422  0.4390191  0.41217887   1.7881841  0 MPO407561  1339   8 2002-2017 0.38 M-v 3Eh MPCLINUX   8804 (206378) 2003 RB            20170327
K6910   17.1   0.15 K1794  44.52096  270.98924  157.58053    4.97393  0.7211473  0.23972385   2.5664249  0 MPO410967   496   8 2001-2017 0.47 M-v 3Eh MPCLINUX   9803 (206910) 2004 NL8           20170517
K7398   20.4   0.15 K1794 283.72834   79.57101  125.98780    2.59316  0.6390828  0.32540272   2.0934147  0 MPO345475   355   8 2003-2015 0.41 M-h 3Eh MPCLINUX   8803 (207398) 2006 AS2           20150728
K7945   19.5   0.15 K1794 192.76433  301.90514   53.87427    8.71038  0.1186350  0.93058430   1.0390399  2 MPO159061   150   5 1955-2009 0.54 M-v 3Eh MPCALB     C803 (207945) 1991 JW            20090617
K8023   20.4   0.15 K1794  75.05012  300.52016  327.12624    6.49803  0.2356342  1.09169477   0.9341183  1 MPO422806   328   6 1999-2017 0.46 M-v 3Eh MPCLINUX   8802 (208023) 1999 AQ10          20171029
K8115   20.7   0.15 K1794 348.60193  292.36557  135.59291   23.29345  0.3548092  0.66537472   1.2994468  2 MPO338545    67   6 2000-2015 0.55 M-h 3Eh MPCLINUX   8803 (208115) 2000 CT101         20150513
L2546   17.7   0.15 K1794 214.41591  182.55091  116.22644    7.35497  0.5154581  0.31655093   2.1322608  0 MPO341695   331   7 2003-2015 0.47 M-h 3Eh MPCLINUX   9804 (212546) 2006 SV19          20150618
L4869   16.4   0.15 K1794   1.41493  292.32531  142.62531    1.98413  0.6612217  0.20756355   2.8251097  0 MPO266614   641   6 2002-2013 0.43 M-h 3Eh MPCLINUX   9803 (214869) 2007 PA8           20130513
L5588   19.4   0.15 K1794 175.52244  230.93386  189.97602    3.05670  0.6755190  0.83845430   1.1138237  2 MPO410985   333  10 2002-2017 0.50 M-v 3Eh MPCLINUX   8803 (215588) 2003 HF2           20170522
L6115   18.8   0.15 K1794 174.62157   10.55900  152.25626    2.09148  0.5863813  0.52239953   1.5268658  1 MPO418158   187   7 2006-2017 0.47 M-v 3Eh MPCLINUX   8803 (216115) 2006 SU19          20170914
L6258   20.2   0.15 K1794 320.54998  263.27947  240.61863    2.64232  0.4851283  0.45519362   1.6736781  1 MPO157892   587   4 2006-2009 0.47 M-v 3Eh MPCW       C803 (216258) 2006 WH1           20090515
L6523   20.6   0.15 K1794  36.38150  211.25634  205.11325    5.21130  0.4121695  1.12824926   0.9138313  2 MPO396625   274   7 2001-2016 0.54 M-h 3Eh MPCLINUX   8802 (216523) 2001 HY7           20160618
L6985   20.9   0.15 K1794 160.36395   66.31857  173.92594    4.72254  0.2617781  0.76829484   1.1806398  1 MPO281149   156   5 2000-2013 0.49 M-h 3Eh MPCLINUX   8803 (216985) 2000 QK130         20131128
L7430   19.6   0.15 K1794  42.64998   45.11507  168.32596   13.00979  0.2706104  0.72250552   1.2300099  1 MPO391128   190   6 2001-2016 0.46 M-h 3Eh MPCLINUX   8803 (217430) 2005 SN25          20161106
L7628   16.4   0.15 K1794 250.33487  310.22815  183.12343    4.02277  0.7030795  0.24188678   2.5511028  1 MPO418165    66   8 1960-2017 0.78 M-v 3Eh MPCLINUX   9803 (217628) Lugh               20170828
M0839   17.2   0.15 K1794 283.37141   43.14052  109.65493    3.69712  0.5961303  0.37612491   1.9007047  1 MPO422859   379  12 2003-2017 0.44 M-v 3Eh MPCLINUX   9803 (220839) 2004 VA            20171026
M1455   19.4   0.15 K1794 326.80228  233.93523   21.30427    0.92954  0.6584300  0.34441902   2.0156322  0 MPO241416   373   6 2006-2012 0.43 M-h 3Eh MPCLINUX   C803 (221455) 2006 BC10          20121021
M1980   19.0   0.15 K1794   4.23589   64.62677  356.52066   21.59645  0.4007049  0.63439101   1.3414198  2 MPO257966   114   6 1996-2013 0.58 M-h 3Eh MPCLINUX   8803 (221980) 1996 EO            20130313
M6514   20.1   0.15 K1794 165.14107  218.49216    4.37547    2.56443  0.6158523  0.85998375   1.0951557  2 MPO396677   209   8 2001-2016 0.52 M-h 3Eh MPCLINUX   8803 (226514) 2003 UX34          20161229
M6554   19.5   0.15 K1794 116.80539  107.93029   85.86097    9.27400  0.2615036  0.83306367   1.1186235  1 MPO418209   267   8 1990-2017 0.44 M-v 3Eh MPCLINUX   8803 (226554) 2003 WR21          20170921
M8368   18.4   0.15 K1794 165.98358  244.48029   57.99012   14.73567  0.7018747  0.54820160   1.4785721  2 MPO254396   147   8 2000-2013 0.47 M-h 3Eh MPCLINUX   8803 (228368) 2000 WK10          20130208
N0111   19.1   0.15 K1794 210.57345   30.57113  297.79738   17.50757  0.3691462  1.31968435   0.8231696  0 MPO376569   743   6 2001-2016 0.52 M-v 3Eh MPCW       8802 (230111) 2001 BE10          20160323
N0549   20.6   0.15 K1794 140.69883  313.33951  119.79767   13.10966  0.3561234  0.56072018   1.4564825  1 MPO407720   153   5 2003-2017 0.49 M-v 3Eh MPCLINUX   8803 (230549) 2003 BH            20170318
N1937   17.7   0.15 K1794 126.10851  123.27365  181.78194   38.96263  0.8259531  0.44423292   1.7010963  2 MPO338656   158   7 2001-2014 0.53 M-h 3Eh MPCLINUX   9803 (231937) 2001 FO32          20141209
N2691   19.8   0.15 K1794 351.61541   50.21458  336.57957    9.07987  0.4699398  0.49802920   1.5762781  0 MPO418241   274  11 2004-2017 0.43 M-v 3Eh MPCLINUX   8803 (232691) 2004 AR1           20170718
N4145   21.3   0.15 K1794 352.10916  125.61684  178.16659    5.43172  0.3212446  1.08553124   0.9376509  0 MPO172496   308   4 2000-2010 0.64 M-v 3Eh MPCW       C802 (234145) 2000 EW70          20100313
N5756   18.7   0.15 K1794 293.95684   94.19151  194.17598   39.14670  0.2588035  0.81687908   1.1333504  1 MPO372551   198   5 1992-2015 0.40 M-h 3Eh MPCLINUX   8803 (235756) 2004 VC            20151208
O2216   15.7   0.15 K1794  79.87364    4.57953  267.20739   39.63575  0.5409711  0.29579930   2.2308547  1 MPO376625   300  10 2003-2016 0.44 M-h 3Eh MPCLINUX   9804 (242216) 2003 RN10          20160227
O2450   14.7   0.15 K1794 123.97889  104.96341  295.31011   37.02588  0.4772749  0.87332089   1.0839772  2 MPO376626   399  11 2004-2016 0.33 M-h 3Eh MPCLINUX   9803 (242450) 2004 QY2           20160401
O2643   17.4   0.15 K1794 286.00649   48.28646   39.43762    8.48816  0.8643329  0.39675384   1.8342363  1 MPO345599   486   6 2005-2015 0.33 M-h 3Eh MPCLINUX   9803 (242643) 2005 NZ6           20150726
O2708   18.1   0.15 K1794 310.09969  345.96338  180.35446    0.79029  0.6952797  0.24903379   2.5020570  0 MPO422943   297   7 2005-2017 0.38 M-v 3Eh MPCLINUX   9803 (242708) 2005 UK1           20171022
O3566   17.4   0.15 K1794 312.53640   52.77506  170.36840   19.94990  0.6415116  0.25578920   2.4578078  0 MPO314692   458   9 1991-2014 0.36 M-h 3Eh MPCLINUX   9803 (243566) 1995 SA            20141027
O4977   18.3   0.15 K1794 326.64385  191.17179  210.92831   15.74744  0.4448803  0.42208935   1.7600829  1 MPO422951   191   9 2004-2017 0.47 M-v 3Eh MPCLINUX   8803 (244977) 2004 BE68          20171017
O7360   19.2   0.15 K1794 280.34166  285.96473  261.08541   19.06821  0.8370742  0.23874837   2.5734107  1 MPO306433   100   5 2001-2010 0.50 M-h 3Eh MPCLINUX   C803 (247360) 2001 XU            20100720
P0620   18.0   0.15 K1794  80.06176  242.86265  194.90162   16.09415  0.6008482  0.32143739   2.1105960  0 MPO411061   599   9 2005-2017 0.35 M-v 3Eh MPCLINUX   9803 (250620) 2005 GE59          20170522
P0680   19.7   0.15 K1794 268.29824  108.68628   48.10250    9.45030  0.3645096  1.16774693   0.8931071  2 MPO418338   100   6 2005-2017 0.40 M-v 3Eh MPCLINUX   8802 (250680) 2005 QC5           20170805
P0706   18.5   0.15 K1794 115.85181   58.95511   28.10803    6.95222  0.6961686  0.19229918   2.9727001  0 MPO396808   363   5 2005-2016 0.37 M-h 3Eh MPCLINUX   8803 (250706) 2005 RR6           20160421
P1346   16.8   0.15 K1794  95.47141  174.99703  306.83192    8.19546  0.5343172  0.34483153   2.0140244  0 MPO413157   926  10 1990-2017 0.33 M-v 3Eh MPCLINUX   9803 (251346) 2007 SJ            20170626
P1722   19.7   0.15 K1794  13.00604  100.19969   66.01071    3.17055  0.6613686  0.45495275   1.6742688  1 MPO268258   164   6 1997-2013 0.54 M-h 3Eh MPCLINUX   8803 (251722) 1997 US2           20130719
P2399   19.2   0.15 K1794  10.34273  136.00738   57.80281   15.20930  0.5460082  1.20479855   0.8747013  3 MPO310667   125   6 2001-2014 0.60 M-h 3Eh MPCLINUX   C802 (252399) 2001 TX44          20140918
P3841   17.1   0.15 K1794 309.42950  232.56285  348.23801    8.09513  0.6419273  0.28517562   2.2859205  0 MPO391324   416  10 2003-2016 0.43 M-h 3Eh MPCLINUX   9803 (253841) 2003 YG118         20161105
P5071   18.3   0.15 K1794  15.55970  200.19724   19.31461    2.64057  0.6324895  0.98391518   1.0011464  4 MPO391329   116  11 2002-2016 0.35 M-h 3Eh MPCLINUX   C803 (255071) 2005 UH6           20161029
PLS6344 20.4   0.15 K1794  31.50562  234.13047  183.57424    4.72491  0.6672144  0.20987943   2.8042892  0 MPO157548   114   3 1960-2008 0.44 M-v 3Eh MPCW       8803          6344 P-L           20080203
